GLOBALSTAR M035         
1 25851U 99037A   24323.90436809 -.00000085  00000+0 -80089-3 0  9994
2 25851  51.9911 163.9160 0013925   7.2901  98.0216 11.04534861 73025
GLOBALSTAR M032         
1 25852U 99037B   24323.79592287 -.00000186  00000+0 -38186-2 0  9997
2 25852  51.9986   3.8671 0010846 174.2656 185.8269 11.19056176111231
GLOBALSTAR M051         
1 25853U 99037C   24323.93645735 -.00000075  00000+0 -75643-4 0  9999
2 25853  51.9771 188.0960 0001127 137.4384 222.6514 11.42198930108366
GLOBALSTAR M030         
1 25854U 99037D   24323.80429261 -.00000109  00000+0 -71625-3 0  9993
2 25854  51.9908   7.8959 0003751  34.2976 325.8083 11.55100505125733
GLOBALSTAR M048         
1 25872U 99041A   24323.79230262 -.00000097  00000+0 -73486-3 0  9990
2 25872  51.9338 115.3395 0013650 175.3910 325.9591 11.33851926101110
GLOBALSTAR M026         
1 25873U 99041B   24323.89979661 -.00000088  00000+0 -89691-3 0  9990
2 25873  52.0015 284.0944 0001079 285.1104 115.8377 11.06827486125204
GLOBALSTAR M043         
1 25874U 99041C   24324.11139591 -.00000027  00000+0  12138-2 0  9990
2 25874  51.9389 213.8585 0012752 318.0293 212.8681 11.25687598 99242
GLOBALSTAR M028         
1 25875U 99041D   24324.11134353 -.00000099  00000+0  57231-5 0  9997
2 25875  51.9616  99.4671 0062739 335.8069  23.9850 12.50570359163929
